{"type": "FeatureCollection", "features": [{"type": "Feature", "properties": {"name": "north_coast_cell000", "km2": 36.2}, "geometry": {"type": "Polygon", "coordinates": [[[-7.842377757155227, 43.67654945447424], [-7.950155648185121, 43.67654945447424], [-7.876172524656965, 43.73203679712036], [-7.842377757155227, 43.7387957506207], [-7.842377757155227, 43.67654945447424]]]}}, {"type": "Feature", "properties": {"name": "north_coast_cell001", "km2": 79.2}, "geometry": {"type": "Polygon", "coordinates": [[[-7.718627572589045, 43.689003183430444], [-7.780896217370059, 43.67654945447424], [-7.8423777571552264, 43.67654945447424], [-7.8423777571552264, 43.7387957506207], [-7.718627572589045, 43.763545787533936], [-7.718627572589045, 43.689003183430444]]]}}, {"type": "Feature", "properties": {"name": "north_coast_cell002", "km2": 80.4}, "geometry": {"type": "Polygon", "coordinates": [[[-7.594877388022864, 43.686908163920975], [-7.695546349607996, 43.69361942802665], [-7.718627572589045, 43.689003183430444], [-7.718627572589045, 43.763545787533936], [-7.704453650392003, 43.76638057197334], [-7.594877388022864, 43.7590754878154], [-7.594877388022864, 43.686908163920975]]]}}, {"type": "Feature", "properties": {"name": "north_coast_cell003", "km2": 80.0}, "geometry": {"type": "Polygon", "coordinates": [[[-7.471127203456683, 43.67654945447424], [-7.5063201227870415, 43.67654945447424], [-7.557420351848671, 43.68441102817603], [-7.594877388022864, 43.686908163920975], [-7.594877388022864, 43.7590754878154], [-7.542579648151329, 43.75558897182396], [-7.471127203456683, 43.744596288024795], [-7.471127203456683, 43.67654945447424]]]}}, {"type": "Feature", "properties": {"name": "north_coast_cell004", "km2": 58.8}, "geometry": {"type": "Polygon", "coordinates": [[[-7.3473770188905005, 43.67654945447424], [-7.471127203456682, 43.67654945447424], [-7.471127203456682, 43.744596288024795], [-7.394689535963227, 43.73283664687196], [-7.3473770188905005, 43.69665648675752], [-7.3473770188905005, 43.67654945447424]]]}}, {"type": "Feature", "properties": {"name": "north_coast_cell006", "km2": 36.3}, "geometry": {"type": "Polygon", "coordinates": [[[-7.966127941721408, 43.58671833697514], [-8.069930471517258, 43.58671833697514], [-7.966127941721408, 43.66457023432203], [-7.966127941721408, 43.58671833697514]]]}}, {"type": "Feature", "properties": {"name": "north_coast_cell007", "km2": 71.7}, "geometry": {"type": "Polygon", "coordinates": [[[-7.842377757155227, 43.67654945447424], [-7.842377757155227, 43.6540504915205], [-7.932153963215706, 43.58671833697514], [-7.966127941721409, 43.58671833697514], [-7.966127941721409, 43.66457023432203], [-7.950155648185121, 43.67654945447424], [-7.842377757155227, 43.67654945447424]]]}}, {"type": "Feature", "properties": {"name": "north_coast_cell010", "km2": 42.8}, "geometry": {"type": "Polygon", "coordinates": [[[-7.471127203456682, 43.67654945447424], [-7.3473770188905005, 43.67654945447424], [-7.3473770188905005, 43.592273071545605], [-7.445310464036772, 43.667163353128046], [-7.471127203456682, 43.671135159192644], [-7.471127203456682, 43.67654945447424]]]}}, {"type": "Feature", "properties": {"name": "north_coast_cell011", "km2": 67.0}, "geometry": {"type": "Polygon", "coordinates": [[[-7.223626834324319, 43.58671833697514], [-7.340113135221433, 43.58671833697514], [-7.3473770188905005, 43.592273071545605], [-7.3473770188905005, 43.67654945447424], [-7.321083207443136, 43.67654945447424], [-7.225199815095928, 43.60322686032637], [-7.223626834324319, 43.603017129556825], [-7.223626834324319, 43.58671833697514]]]}}, {"type": "Feature", "properties": {"name": "north_coast_cell012", "km2": 8.9}, "geometry": {"type": "Polygon", "coordinates": [[[-7.223626834324319, 43.58671833697514], [-7.223626834324319, 43.603017129556825], [-7.101385889961681, 43.58671833697514], [-7.223626834324319, 43.58671833697514]]]}}, {"type": "Feature", "properties": {"name": "north_coast_cell014", "km2": 12.3}, "geometry": {"type": "Polygon", "coordinates": [[[-6.852376280625775, 43.58671833697514], [-6.976126465191956, 43.58671833697514], [-6.976126465191956, 43.59434189760108], [-6.9539647053495885, 43.595819348257244], [-6.852376280625775, 43.60089876949343], [-6.852376280625775, 43.58671833697514]]]}}, {"type": "Feature", "properties": {"name": "north_coast_cell015", "km2": 19.0}, "geometry": {"type": "Polygon", "coordinates": [[[-6.728626096059593, 43.58671833697514], [-6.852376280625775, 43.58671833697514], [-6.852376280625775, 43.60089876949343], [-6.75, 43.606017583524725], [-6.728626096059593, 43.604948888327705], [-6.728626096059593, 43.58671833697514]]]}}, {"type": "Feature", "properties": {"name": "north_coast_cell016", "km2": 16.8}, "geometry": {"type": "Polygon", "coordinates": [[[-6.604875911493411, 43.58671833697514], [-6.7286260960595925, 43.58671833697514], [-6.7286260960595925, 43.604948888327705], [-6.604875911493411, 43.5987613790994], [-6.604875911493411, 43.58671833697514]]]}}, {"type": "Feature", "properties": {"name": "north_coast_cell017", "km2": 11.0}, "geometry": {"type": "Polygon", "coordinates": [[[-6.48112572692723, 43.58671833697514], [-6.604875911493411, 43.58671833697514], [-6.604875911493411, 43.5987613790994], [-6.54829726949839, 43.59593244699965], [-6.48112572692723, 43.59593244699965], [-6.48112572692723, 43.58671833697514]]]}}, {"type": "Feature", "properties": {"name": "north_coast_cell018", "km2": 10.2}, "geometry": {"type": "Polygon", "coordinates": [[[-6.357375542361049, 43.58671833697514], [-6.48112572692723, 43.58671833697514], [-6.48112572692723, 43.59593244699965], [-6.357375542361049, 43.59593244699965], [-6.357375542361049, 43.58671833697514]]]}}, {"type": "Feature", "properties": {"name": "north_coast_cell019", "km2": 13.4}, "geometry": {"type": "Polygon", "coordinates": [[[-6.233625357794867, 43.58671833697514], [-6.357375542361048, 43.58671833697514], [-6.357375542361048, 43.59593244699965], [-6.351702730501608, 43.59593244699965], [-6.233625357794867, 43.60183631563498], [-6.233625357794867, 43.58671833697514]]]}}, {"type": "Feature", "properties": {"name": "north_coast_cell020", "km2": 19.5}, "geometry": {"type": "Polygon", "coordinates": [[[-6.109875173228685, 43.58671833697514], [-6.233625357794867, 43.58671833697514], [-6.233625357794867, 43.60183631563498], [-6.15, 43.606017583524725], [-6.109875173228685, 43.60401134218616], [-6.109875173228685, 43.58671833697514]]]}}, {"type": "Feature", "properties": {"name": "north_coast_cell021", "km2": 15.8}, "geometry": {"type": "Polygon", "coordinates": [[[-5.986124988662504, 43.58671833697514], [-6.109875173228685, 43.58671833697514], [-6.109875173228685, 43.60401134218616], [-5.986124988662504, 43.59782383295785], [-5.986124988662504, 43.58671833697514]]]}}, {"type": "Feature", "properties": {"name": "north_coast_cell022", "km2": 12.3}, "geometry": {"type": "Polygon", "coordinates": [[[-5.862374804096322, 43.58671833697514], [-5.986124988662503, 43.58671833697514], [-5.986124988662503, 43.59782383295785], [-5.95, 43.59601758352473], [-5.862374804096322, 43.600398843319915], [-5.862374804096322, 43.58671833697514]]]}}, {"type": "Feature", "properties": {"name": "north_coast_cell023", "km2": 18.6}, "geometry": {"type": "Polygon", "coordinates": [[[-5.738624619530141, 43.58671833697514], [-5.862374804096322, 43.58671833697514], [-5.862374804096322, 43.600398843319915], [-5.74943361352149, 43.606045902848656], [-5.738624619530141, 43.60532530324923], [-5.738624619530141, 43.58671833697514]]]}}, {"type": "Feature", "properties": {"name": "north_coast_cell024", "km2": 16.1}, "geometry": {"type": "Polygon", "coordinates": [[[-5.614874434963959, 43.58671833697514], [-5.738624619530141, 43.58671833697514], [-5.738624619530141, 43.60532530324923], [-5.614874434963959, 43.59707529094482], [-5.614874434963959, 43.58671833697514]]]}}, {"type": "Feature", "properties": {"name": "north_coast_cell025", "km2": 7.5}, "geometry": {"type": "Polygon", "coordinates": [[[-5.491124250397777, 43.58671833697514], [-5.6148744349639585, 43.58671833697514], [-5.6148744349639585, 43.59707529094482], [-5.595847647581465, 43.59580683845265], [-5.491124250397777, 43.589988871942445], [-5.491124250397777, 43.58671833697514]]]}}, {"type": "Feature", "properties": {"name": "north_coast_cell028", "km2": 48.3}, "geometry": {"type": "Polygon", "coordinates": [[[-8.089878126287589, 43.49688721947604], [-8.213628310853771, 43.49688721947604], [-8.213628310853771, 43.50731962787783], [-8.089878126287589, 43.57331972631312], [-8.089878126287589, 43.49688721947604]]]}}, {"type": "Feature", "properties": {"name": "north_coast_cell029", "km2": 72.1}, "geometry": {"type": "Polygon", "coordinates": [[[-7.966127941721408, 43.58671833697514], [-7.966127941721408, 43.56123785309586], [-8.017331706400407, 43.52283502958661], [-8.06598385035773, 43.49688721947604], [-8.089878126287589, 43.49688721947604], [-8.089878126287589, 43.57331972631312], [-8.082668293599596, 43.577164970413385], [-8.069930471517258, 43.58671833697514], [-7.966127941721408, 43.58671833697514]]]}}, {"type": "Feature", "properties": {"name": "north_coast_cell031", "km2": 39.2}, "geometry": {"type": "Polygon", "coordinates": [[[-7.223626834324319, 43.58671833697514], [-7.223626834324319, 43.529950026262995], [-7.274800184904072, 43.53677313967363], [-7.340113135221433, 43.58671833697514], [-7.223626834324319, 43.58671833697514]]]}}, {"type": "Feature", "properties": {"name": "north_coast_cell032", "km2": 72.3}, "geometry": {"type": "Polygon", "coordinates": [[[-7.099876649758138, 43.51392456140224], [-7.102249448498501, 43.513766374819554], [-7.223626834324319, 43.529950026262995], [-7.223626834324319, 43.58671833697514], [-7.101385889961681, 43.58671833697514], [-7.099876649758138, 43.586517104948], [-7.099876649758138, 43.51392456140224]]]}}, {"type": "Feature", "properties": {"name": "north_coast_cell033", "km2": 76.3}, "geometry": {"type": "Polygon", "coordinates": [[[-6.976126465191956, 43.58671833697514], [-6.976126465191956, 43.522174573706664], [-7.099876649758137, 43.51392456140224], [-7.099876649758137, 43.586517104948], [-7.097750551501499, 43.58623362518045], [-7.0904798745811375, 43.58671833697514], [-6.976126465191956, 43.58671833697514]]]}}, {"type": "Feature", "properties": {"name": "north_coast_cell034", "km2": 67.8}, "geometry": {"type": "Polygon", "coordinates": [[[-6.976126465191956, 43.58671833697514], [-6.852376280625775, 43.58671833697514], [-6.852376280625775, 43.528863602444], [-6.946035294650412, 43.52418065174277], [-6.976126465191956, 43.522174573706664], [-6.976126465191956, 43.58671833697514]]]}}, {"type": "Feature", "properties": {"name": "north_coast_cell035", "km2": 61.1}, "geometry": {"type": "Polygon", "coordinates": [[[-6.852376280625775, 43.58671833697514], [-6.728626096059593, 43.58671833697514], [-6.728626096059593, 43.53291372127826], [-6.75, 43.53398241647528], [-6.852376280625775, 43.528863602444], [-6.852376280625775, 43.58671833697514]]]}}, {"type": "Feature", "properties": {"name": "north_coast_cell036", "km2": 63.2}, "geometry": {"type": "Polygon", "coordinates": [[[-6.7286260960595925, 43.58671833697514], [-6.604875911493411, 43.58671833697514], [-6.604875911493411, 43.52672621204995], [-6.7286260960595925, 43.53291372127826], [-6.7286260960595925, 43.58671833697514]]]}}, {"type": "Feature", "properties": {"name": "north_coast_cell037", "km2": 69.0}, "geometry": {"type": "Polygon", "coordinates": [[[-6.604875911493411, 43.58671833697514], [-6.48112572692723, 43.58671833697514], [-6.48112572692723, 43.524067553000364], [-6.551702730501608, 43.524067553000364], [-6.604875911493411, 43.52672621204995], [-6.604875911493411, 43.58671833697514]]]}}, {"type": "Feature", "properties": {"name": "north_coast_cell038", "km2": 69.6}, "geometry": {"type": "Polygon", "coordinates": [[[-6.48112572692723, 43.58671833697514], [-6.357375542361049, 43.58671833697514], [-6.357375542361049, 43.524067553000364], [-6.48112572692723, 43.524067553000364], [-6.48112572692723, 43.58671833697514]]]}}, {"type": "Feature", "properties": {"name": "north_coast_cell039", "km2": 66.7}, "geometry": {"type": "Polygon", "coordinates": [[[-6.357375542361048, 43.58671833697514], [-6.233625357794867, 43.58671833697514], [-6.233625357794867, 43.52980114858554], [-6.34829726949839, 43.524067553000364], [-6.357375542361048, 43.524067553000364], [-6.357375542361048, 43.58671833697514]]]}}, {"type": "Feature", "properties": {"name": "north_coast_cell040", "km2": 60.5}, "geometry": {"type": "Polygon", "coordinates": [[[-6.233625357794867, 43.58671833697514], [-6.109875173228685, 43.58671833697514], [-6.109875173228685, 43.53197617513672], [-6.15, 43.53398241647528], [-6.233625357794867, 43.52980114858554], [-6.233625357794867, 43.58671833697514]]]}}, {"type": "Feature", "properties": {"name": "north_coast_cell041", "km2": 64.3}, "geometry": {"type": "Polygon", "coordinates": [[[-6.109875173228685, 43.58671833697514], [-5.986124988662504, 43.58671833697514], [-5.986124988662504, 43.52578866590841], [-6.109875173228685, 43.53197617513672], [-6.109875173228685, 43.58671833697514]]]}}, {"type": "Feature", "properties": {"name": "north_coast_cell042", "km2": 67.7}, "geometry": {"type": "Polygon", "coordinates": [[[-5.986124988662503, 43.58671833697514], [-5.862374804096322, 43.58671833697514], [-5.862374804096322, 43.528363676270466], [-5.95, 43.523982416475285], [-5.986124988662503, 43.52578866590841], [-5.986124988662503, 43.58671833697514]]]}}, {"type": "Feature", "properties": {"name": "north_coast_cell043", "km2": 61.5}, "geometry": {"type": "Polygon", "coordinates": [[[-5.862374804096322, 43.58671833697514], [-5.738624619530141, 43.58671833697514], [-5.738624619530141, 43.5331579793548], [-5.75056638647851, 43.53395409715135], [-5.862374804096322, 43.528363676270466], [-5.862374804096322, 43.58671833697514]]]}}, {"type": "Feature", "properties": {"name": "north_coast_cell044", "km2": 64.1}, "geometry": {"type": "Polygon", "coordinates": [[[-5.738624619530141, 43.58671833697514], [-5.614874434963959, 43.58671833697514], [-5.614874434963959, 43.52490796705039], [-5.738624619530141, 43.5331579793548], [-5.738624619530141, 43.58671833697514]]]}}, {"type": "Feature", "properties": {"name": "north_coast_cell045", "km2": 72.6}, "geometry": {"type": "Polygon", "coordinates": [[[-5.6148744349639585, 43.58671833697514], [-5.491124250397777, 43.58671833697514], [-5.491124250397777, 43.517913822546205], [-5.604152352418535, 43.52419316154736], [-5.6148744349639585, 43.52490796705039], [-5.6148744349639585, 43.58671833697514]]]}}, {"type": "Feature", "properties": {"name": "north_coast_cell046", "km2": 80.1}, "geometry": {"type": "Polygon", "coordinates": [[[-5.367374065831596, 43.503734083231], [-5.427786149421546, 43.514395039158636], [-5.491124250397777, 43.517913822546205], [-5.491124250397777, 43.58671833697514], [-5.432254620986355, 43.58671833697514], [-5.412213850578455, 43.585604960841366], [-5.367374065831596, 43.577692057650744], [-5.367374065831596, 43.503734083231]]]}}, {"type": "Feature", "properties": {"name": "north_coast_cell047", "km2": 76.5}, "geometry": {"type": "Polygon", "coordinates": [[[-5.243623881265415, 43.49688721947604], [-5.328575171220131, 43.49688721947604], [-5.367374065831596, 43.503734083231], [-5.367374065831596, 43.577692057650744], [-5.243623881265415, 43.55585378978613], [-5.243623881265415, 43.49688721947604]]]}}, {"type": "Feature", "properties": {"name": "north_coast_cell048", "km2": 53.4}, "geometry": {"type": "Polygon", "coordinates": [[[-5.119873696699233, 43.49688721947604], [-5.243623881265414, 43.49688721947604], [-5.243623881265414, 43.55585378978613], [-5.238307046708215, 43.55491552486427], [-5.119873696699233, 43.53401552192151], [-5.119873696699233, 43.49688721947604]]]}}, {"type": "Feature", "properties": {"name": "north_coast_cell049", "km2": 30.8}, "geometry": {"type": "Polygon", "coordinates": [[[-4.996123512133051, 43.49688721947604], [-5.119873696699233, 43.49688721947604], [-5.119873696699233, 43.53401552192151], [-5.070390807070837, 43.5252832472812], [-4.996123512133051, 43.517031325621446], [-4.996123512133051, 43.49688721947604]]]}}, {"type": "Feature", "properties": {"name": "north_coast_cell050", "km2": 14.6}, "geometry": {"type": "Polygon", "coordinates": [[[-4.87237332756687, 43.49688721947604], [-4.996123512133051, 43.49688721947604], [-4.996123512133051, 43.517031325621446], [-4.888952384417128, 43.50512342254189], [-4.87237332756687, 43.50143918768628], [-4.87237332756687, 43.49688721947604]]]}}, {"type": "Feature", "properties": {"name": "north_coast_cell052", "km2": 21.6}, "geometry": {"type": "Polygon", "coordinates": [[[-8.337378495419951, 43.407056101976934], [-8.457450819667477, 43.407056101976934], [-8.44065628303112, 43.41265428085572], [-8.337378495419951, 43.44708021005945], [-8.337378495419951, 43.407056101976934]]]}}, {"type": "Feature", "properties": {"name": "north_coast_cell053", "km2": 74.5}, "geometry": {"type": "Polygon", "coordinates": [[[-8.213628310853771, 43.49688721947604], [-8.213628310853771, 43.41955445329117], [-8.23862501348225, 43.407056101976934], [-8.337378495419953, 43.407056101976934], [-8.337378495419953, 43.44708021005945], [-8.32455009649506, 43.45135634303441], [-8.23348834361181, 43.49688721947604], [-8.213628310853771, 43.49688721947604]]]}}, {"type": "Feature", "properties": {"name": "north_coast_cell054", "km2": 50.6}, "geometry": {"type": "Polygon", "coordinates": [[[-8.213628310853771, 43.49688721947604], [-8.089878126287589, 43.49688721947604], [-8.089878126287589, 43.48414360564678], [-8.171299928463107, 43.4407186444865], [-8.213628310853771, 43.41955445329117], [-8.213628310853771, 43.49688721947604]]]}}, {"type": "Feature", "properties": {"name": "north_coast_cell056", "km2": 5.7}, "geometry": {"type": "Polygon", "coordinates": [[[-5.243623881265415, 43.49688721947604], [-5.243623881265415, 43.481895815366386], [-5.261692953291788, 43.48508447513574], [-5.328575171220131, 43.49688721947604], [-5.243623881265415, 43.49688721947604]]]}}, {"type": "Feature", "properties": {"name": "north_coast_cell057", "km2": 28.8}, "geometry": {"type": "Polygon", "coordinates": [[[-5.243623881265414, 43.49688721947604], [-5.119873696699233, 43.49688721947604], [-5.119873696699233, 43.460057547501755], [-5.243623881265414, 43.48189581536638], [-5.243623881265414, 43.49688721947604]]]}}, {"type": "Feature", "properties": {"name": "north_coast_cell058", "km2": 50.6}, "geometry": {"type": "Polygon", "coordinates": [[[-5.119873696699233, 43.49688721947604], [-4.996123512133051, 43.49688721947604], [-4.996123512133051, 43.44432945485257], [-5.089609192929164, 43.4547167527188], [-5.119873696699233, 43.460057547501755], [-5.119873696699233, 43.49688721947604]]]}}, {"type": "Feature", "properties": {"name": "north_coast_cell059", "km2": 66.9}, "geometry": {"type": "Polygon", "coordinates": [[[-4.996123512133051, 43.49688721947604], [-4.87237332756687, 43.49688721947604], [-4.87237332756687, 43.426282291232326], [-4.9110476155828735, 43.434876577458105], [-4.996123512133051, 43.44432945485257], [-4.996123512133051, 43.49688721947604]]]}}, {"type": "Feature", "properties": {"name": "north_coast_cell060", "km2": 81.9}, "geometry": {"type": "Polygon", "coordinates": [[[-4.748623143000688, 43.407056101976934], [-4.785855475917617, 43.407056101976934], [-4.872373327566869, 43.426282291232326], [-4.872373327566869, 43.49688721947604], [-4.851889470620778, 43.49688721947604], [-4.748623143000688, 43.47393914667157], [-4.748623143000688, 43.407056101976934]]]}}, {"type": "Feature", "properties": {"name": "north_coast_cell061", "km2": 62.5}, "geometry": {"type": "Polygon", "coordinates": [[[-4.624872958434507, 43.407056101976934], [-4.748623143000688, 43.407056101976934], [-4.748623143000688, 43.47393914667157], [-4.708743431667057, 43.46507698859743], [-4.624872958434507, 43.45520987409949], [-4.624872958434507, 43.407056101976934]]]}}, {"type": "Feature", "properties": {"name": "north_coast_cell062", "km2": 46.0}, "geometry": {"type": "Polygon", "coordinates": [[[-4.5011227738683255, 43.407056101976934], [-4.624872958434507, 43.407056101976934], [-4.624872958434507, 43.45520987409949], [-4.544031960016407, 43.44569916840324], [-4.5011227738683255, 43.44317509862982], [-4.5011227738683255, 43.407056101976934]]]}}, {"type": "Feature", "properties": {"name": "north_coast_cell063", "km2": 36.2}, "geometry": {"type": "Polygon", "coordinates": [[[-4.377372589302143, 43.407056101976934], [-4.501122773868325, 43.407056101976934], [-4.501122773868325, 43.44317509862982], [-4.3779976961551474, 43.43593244699964], [-4.377372589302143, 43.43593244699964], [-4.377372589302143, 43.407056101976934]]]}}, {"type": "Feature", "properties": {"name": "north_coast_cell064", "km2": 32.2}, "geometry": {"type": "Polygon", "coordinates": [[[-4.253622404735962, 43.407056101976934], [-4.377372589302143, 43.407056101976934], [-4.377372589302143, 43.43593244699964], [-4.253622404735962, 43.43593244699964], [-4.253622404735962, 43.407056101976934]]]}}, {"type": "Feature", "properties": {"name": "north_coast_cell065", "km2": 34.9}, "geometry": {"type": "Polygon", "coordinates": [[[-4.129872220169781, 43.407056101976934], [-4.253622404735962, 43.407056101976934], [-4.253622404735962, 43.43593244699964], [-4.203766395463193, 43.43593244699964], [-4.129872220169781, 43.44414291092113], [-4.129872220169781, 43.407056101976934]]]}}, {"type": "Feature", "properties": {"name": "north_coast_cell066", "km2": 49.0}, "geometry": {"type": "Polygon", "coordinates": [[[-4.006122035603599, 43.407056101976934], [-4.12987222016978, 43.407056101976934], [-4.12987222016978, 43.44414291092113], [-4.027704371581703, 43.45549489409759], [-4.006122035603599, 43.45803399244795], [-4.006122035603599, 43.407056101976934]]]}}, {"type": "Feature", "properties": {"name": "north_coast_cell067", "km2": 64.9}, "geometry": {"type": "Polygon", "coordinates": [[[-3.882371851037417, 43.407056101976934], [-4.006122035603599, 43.407056101976934], [-4.006122035603599, 43.45803399244795], [-3.882371851037417, 43.472592837691025], [-3.882371851037417, 43.407056101976934]]]}}, {"type": "Feature", "properties": {"name": "north_coast_cell068", "km2": 73.9}, "geometry": {"type": "Polygon", "coordinates": [[[-3.7586216664712357, 43.407056101976934], [-3.8823718510374174, 43.407056101976934], [-3.8823718510374174, 43.472592837691025], [-3.8517233052296884, 43.47619854896252], [-3.7586216664712357, 43.469991773045294], [-3.7586216664712357, 43.407056101976934]]]}}, {"type": "Feature", "properties": {"name": "north_coast_cell069", "km2": 68.0}, "geometry": {"type": "Polygon", "coordinates": [[[-3.6348714819050536, 43.407056101976934], [-3.7586216664712353, 43.407056101976934], [-3.7586216664712353, 43.469991773045294], [-3.7, 43.466083661947216], [-3.6348714819050536, 43.47042556315354], [-3.6348714819050536, 43.407056101976934]]]}}, {"type": "Feature", "properties": {"name": "north_coast_cell070", "km2": 74.6}, "geometry": {"type": "Polygon", "coordinates": [[[-3.5111212973388723, 43.407056101976934], [-3.634871481905054, 43.407056101976934], [-3.634871481905054, 43.47042556315354], [-3.5522682242136, 43.475932446999636], [-3.5111212973388723, 43.475932446999636], [-3.5111212973388723, 43.407056101976934]]]}}, {"type": "Feature", "properties": {"name": "north_coast_cell071", "km2": 76.4}, "geometry": {"type": "Polygon", "coordinates": [[[-3.387371112772691, 43.407056101976934], [-3.511121297338873, 43.407056101976934], [-3.511121297338873, 43.475932446999636], [-3.4179976961551466, 43.475932446999636], [-3.387371112772691, 43.47413088327126], [-3.387371112772691, 43.407056101976934]]]}}, {"type": "Feature", "properties": {"name": "north_coast_cell072", "km2": 70.6}, "geometry": {"type": "Polygon", "coordinates": [[[-3.263620928206509, 43.407056101976934], [-3.3873711127726907, 43.407056101976934], [-3.3873711127726907, 43.47413088327126], [-3.263620928206509, 43.46685146064972], [-3.263620928206509, 43.407056101976934]]]}}, {"type": "Feature", "properties": {"name": "north_coast_cell073", "km2": 58.9}, "geometry": {"type": "Polygon", "coordinates": [[[-3.1398707436403277, 43.407056101976934], [-3.2636209282065094, 43.407056101976934], [-3.2636209282065094, 43.46685146064972], [-3.243513309085152, 43.46566865952494], [-3.1398707436403277, 43.451849650798955], [-3.1398707436403277, 43.407056101976934]]]}}, {"type": "Feature", "properties": {"name": "north_coast_cell074", "km2": 46.7}, "geometry": {"type": "Polygon", "coordinates": [[[-3.0161205590741464, 43.407056101976934], [-3.139870743640328, 43.407056101976934], [-3.139870743640328, 43.451849650798955], [-3.0977505515014983, 43.44623362518044], [-3.0161205590741464, 43.4516756246756], [-3.0161205590741464, 43.407056101976934]]]}}, {"type": "Feature", "properties": {"name": "north_coast_cell075", "km2": 53.2}, "geometry": {"type": "Polygon", "coordinates": [[[-2.8923703745079643, 43.407056101976934], [-3.016120559074146, 43.407056101976934], [-3.016120559074146, 43.4516756246756], [-2.952268224213606, 43.45593244699964], [-2.8923703745079643, 43.45593244699964], [-2.8923703745079643, 43.407056101976934]]]}}, {"type": "Feature", "properties": {"name": "north_coast_cell076", "km2": 54.4}, "geometry": {"type": "Polygon", "coordinates": [[[-2.768620189941783, 43.407056101976934], [-2.8923703745079647, 43.407056101976934], [-2.8923703745079647, 43.45593244699964], [-2.768620189941783, 43.45593244699964], [-2.768620189941783, 43.407056101976934]]]}}, {"type": "Feature", "properties": {"name": "north_coast_cell077", "km2": 54.4}, "geometry": {"type": "Polygon", "coordinates": [[[-2.644870005375602, 43.407056101976934], [-2.7686201899417835, 43.407056101976934], [-2.7686201899417835, 43.45593244699964], [-2.644870005375602, 43.45593244699964], [-2.644870005375602, 43.407056101976934]]]}}, {"type": "Feature", "properties": {"name": "north_coast_cell078", "km2": 37.1}, "geometry": {"type": "Polygon", "coordinates": [[[-2.5211198208094197, 43.407056101976934], [-2.6448700053756014, 43.407056101976934], [-2.6448700053756014, 43.45593244699964], [-2.6411956505075502, 43.45593244699964], [-2.5211198208094197, 43.423912225746804], [-2.5211198208094197, 43.407056101976934]]]}}, {"type": "Feature", "properties": {"name": "north_coast_cell079", "km2": 5.1}, "geometry": {"type": "Polygon", "coordinates": [[[-2.52111982080942, 43.407056101976934], [-2.52111982080942, 43.423912225746804], [-2.48486542781183, 43.41424438761411], [-2.4489239996259413, 43.407056101976934], [-2.52111982080942, 43.407056101976934]]]}}, {"type": "Feature", "properties": {"name": "north_coast_cell081", "km2": 9.8}, "geometry": {"type": "Polygon", "coordinates": [[[-1.902368897978512, 43.407056101976934], [-1.902368897978512, 43.41593244699964], [-1.7799999999999998, 43.41593244699964], [-1.7799999999999998, 43.407056101976934], [-1.902368897978512, 43.407056101976934]]]}}, {"type": "Feature", "properties": {"name": "north_coast_cell083", "km2": 42.0}, "geometry": {"type": "Polygon", "coordinates": [[[-8.832379233684678, 43.31722498447783], [-8.95612941825086, 43.31722498447783], [-8.95612941825086, 43.32700997281816], [-8.885809839781725, 43.36656473570705], [-8.832379233684678, 43.364585824370124], [-8.832379233684678, 43.31722498447783]]]}}, {"type": "Feature", "properties": {"name": "north_coast_cell084", "km2": 50.3}, "geometry": {"type": "Polygon", "coordinates": [[[-8.708629049118496, 43.31722498447783], [-8.832379233684678, 43.31722498447783], [-8.832379233684678, 43.364585824370124], [-8.708629049118496, 43.36000248420101], [-8.708629049118496, 43.31722498447783]]]}}, {"type": "Feature", "properties": {"name": "north_coast_cell085", "km2": 46.2}, "geometry": {"type": "Polygon", "coordinates": [[[-8.584878864552316, 43.31722498447783], [-8.708629049118498, 43.31722498447783], [-8.708629049118498, 43.36000248420101], [-8.609613410607594, 43.35633523833024], [-8.584878864552316, 43.36458008701533], [-8.584878864552316, 43.31722498447783]]]}}, {"type": "Feature", "properties": {"name": "north_coast_cell086", "km2": 74.6}, "geometry": {"type": "Polygon", "coordinates": [[[-8.461128679986134, 43.32675073147186], [-8.489705920968218, 43.31722498447783], [-8.584878864552316, 43.31722498447783], [-8.584878864552316, 43.36458008701533], [-8.461128679986134, 43.40583014853738], [-8.461128679986134, 43.32675073147186]]]}}, {"type": "Feature", "properties": {"name": "north_coast_cell087", "km2": 66.5}, "geometry": {"type": "Polygon", "coordinates": [[[-8.337378495419951, 43.407056101976934], [-8.337378495419951, 43.368000792993925], [-8.39934371696888, 43.34734571914428], [-8.461128679986134, 43.32675073147186], [-8.461128679986134, 43.40583014853738], [-8.457450819667477, 43.407056101976934], [-8.337378495419951, 43.407056101976934]]]}}, {"type": "Feature", "properties": {"name": "north_coast_cell088", "km2": 19.1}, "geometry": {"type": "Polygon", "coordinates": [[[-8.337378495419953, 43.407056101976934], [-8.23862501348225, 43.407056101976934], [-8.275449903504942, 43.38864365696559], [-8.337378495419953, 43.36800079299392], [-8.337378495419953, 43.407056101976934]]]}}, {"type": "Feature", "properties": {"name": "north_coast_cell090", "km2": 19.2}, "geometry": {"type": "Polygon", "coordinates": [[[-4.748623143000688, 43.407056101976934], [-4.624872958434507, 43.407056101976934], [-4.624872958434507, 43.382407292590976], [-4.731256568332943, 43.39492301140256], [-4.748623143000688, 43.398782250217614], [-4.748623143000688, 43.407056101976934]]]}}, {"type": "Feature", "properties": {"name": "north_coast_cell091", "km2": 34.8}, "geometry": {"type": "Polygon", "coordinates": [[[-4.624872958434507, 43.407056101976934], [-4.5011227738683255, 43.407056101976934], [-4.5011227738683255, 43.37107463947232], [-4.5559680399835925, 43.37430083159675], [-4.624872958434507, 43.382407292590976], [-4.624872958434507, 43.407056101976934]]]}}, {"type": "Feature", "properties": {"name": "north_coast_cell092", "km2": 44.2}, "geometry": {"type": "Polygon", "coordinates": [[[-4.501122773868325, 43.407056101976934], [-4.377372589302143, 43.407056101976934], [-4.377372589302143, 43.36406755300035], [-4.382002303844853, 43.36406755300035], [-4.501122773868325, 43.37107463947232], [-4.501122773868325, 43.407056101976934]]]}}, {"type": "Feature", "properties": {"name": "north_coast_cell093", "km2": 47.9}, "geometry": {"type": "Polygon", "coordinates": [[[-4.377372589302143, 43.407056101976934], [-4.253622404735962, 43.407056101976934], [-4.253622404735962, 43.36406755300035], [-4.377372589302143, 43.36406755300035], [-4.377372589302143, 43.407056101976934]]]}}, {"type": "Feature", "properties": {"name": "north_coast_cell094", "km2": 45.7}, "geometry": {"type": "Polygon", "coordinates": [[[-4.253622404735962, 43.407056101976934], [-4.129872220169781, 43.407056101976934], [-4.129872220169781, 43.37144104015225], [-4.196233604536808, 43.36406755300035], [-4.253622404735962, 43.36406755300035], [-4.253622404735962, 43.407056101976934]]]}}, {"type": "Feature", "properties": {"name": "north_coast_cell095", "km2": 32.0}, "geometry": {"type": "Polygon", "coordinates": [[[-4.12987222016978, 43.407056101976934], [-4.006122035603599, 43.407056101976934], [-4.006122035603599, 43.38523141093944], [-4.012295628418297, 43.38450510590241], [-4.12987222016978, 43.37144104015225], [-4.12987222016978, 43.407056101976934]]]}}, {"type": "Feature", "properties": {"name": "north_coast_cell096", "km2": 16.2}, "geometry": {"type": "Polygon", "coordinates": [[[-4.006122035603599, 43.407056101976934], [-3.882371851037417, 43.407056101976934], [-3.882371851037417, 43.39979025618252], [-4.006122035603599, 43.38523141093944], [-4.006122035603599, 43.407056101976934]]]}}, {"type": "Feature", "properties": {"name": "north_coast_cell097", "km2": 6.7}, "geometry": {"type": "Polygon", "coordinates": [[[-3.8823718510374174, 43.407056101976934], [-3.7586216664712357, 43.407056101976934], [-3.7586216664712357, 43.39782444915087], [-3.8482766947703113, 43.403801451037474], [-3.8823718510374174, 43.39979025618252], [-3.8823718510374174, 43.407056101976934]]]}}, {"type": "Feature", "properties": {"name": "north_coast_cell098", "km2": 12.3}, "geometry": {"type": "Polygon", "coordinates": [[[-3.7586216664712353, 43.407056101976934], [-3.6348714819050536, 43.407056101976934], [-3.6348714819050536, 43.398258239259114], [-3.7, 43.39391633805278], [-3.7586216664712353, 43.39782444915087], [-3.7586216664712353, 43.407056101976934]]]}}, {"type": "Feature", "properties": {"name": "north_coast_cell099", "km2": 5.6}, "geometry": {"type": "Polygon", "coordinates": [[[-3.634871481905054, 43.407056101976934], [-3.5111212973388723, 43.407056101976934], [-3.5111212973388723, 43.40406755300035], [-3.5477317757864, 43.40406755300035], [-3.634871481905054, 43.398258239259114], [-3.634871481905054, 43.407056101976934]]]}}, {"type": "Feature", "properties": {"name": "north_coast_cell101", "km2": 9.7}, "geometry": {"type": "Polygon", "coordinates": [[[-3.3873711127726907, 43.407056101976934], [-3.263620928206509, 43.407056101976934], [-3.263620928206509, 43.39475100149222], [-3.3873711127726907, 43.402030424113754], [-3.3873711127726907, 43.407056101976934]]]}}, {"type": "Feature", "properties": {"name": "north_coast_cell102", "km2": 22.3}, "geometry": {"type": "Polygon", "coordinates": [[[-3.2636209282065094, 43.407056101976934], [-3.1398707436403277, 43.407056101976934], [-3.1398707436403277, 43.378782547505125], [-3.2564866909148487, 43.39433134047506], [-3.2636209282065094, 43.39475100149222], [-3.2636209282065094, 43.407056101976934]]]}}, {"type": "Feature", "properties": {"name": "north_coast_cell103", "km2": 34.0}, "geometry": {"type": "Polygon", "coordinates": [[[-3.139870743640328, 43.407056101976934], [-3.0161205590741464, 43.407056101976934], [-3.0161205590741464, 43.37950830078117], [-3.102249448498502, 43.373766374819546], [-3.139870743640328, 43.378782547505125], [-3.139870743640328, 43.407056101976934]]]}}, {"type": "Feature", "properties": {"name": "north_coast_cell104", "km2": 27.0}, "geometry": {"type": "Polygon", "coordinates": [[[-3.016120559074146, 43.407056101976934], [-2.8923703745079643, 43.407056101976934], [-2.8923703745079643, 43.38406755300036], [-2.9477317757863943, 43.38406755300036], [-3.016120559074146, 43.37950830078117], [-3.016120559074146, 43.407056101976934]]]}}, {"type": "Feature", "properties": {"name": "north_coast_cell105", "km2": 25.6}, "geometry": {"type": "Polygon", "coordinates": [[[-2.8923703745079647, 43.407056101976934], [-2.768620189941783, 43.407056101976934], [-2.768620189941783, 43.38406755300036], [-2.8923703745079647, 43.38406755300036], [-2.8923703745079647, 43.407056101976934]]]}}, {"type": "Feature", "properties": {"name": "north_coast_cell106", "km2": 25.8}, "geometry": {"type": "Polygon", "coordinates": [[[-2.7686201899417835, 43.407056101976934], [-2.644870005375602, 43.407056101976934], [-2.644870005375602, 43.38035172790253], [-2.65880434949245, 43.38406755300036], [-2.7686201899417835, 43.38406755300036], [-2.7686201899417835, 43.407056101976934]]]}}, {"type": "Feature", "properties": {"name": "north_coast_cell107", "km2": 48.2}, "geometry": {"type": "Polygon", "coordinates": [[[-2.6448700053756014, 43.407056101976934], [-2.5211198208094197, 43.407056101976934], [-2.5211198208094197, 43.34735167868489], [-2.6448700053756014, 43.38035172790253], [-2.6448700053756014, 43.407056101976934]]]}}, {"type": "Feature", "properties": {"name": "north_coast_cell108", "km2": 78.4}, "geometry": {"type": "Polygon", "coordinates": [[[-2.3973696362432384, 43.322202625196894], [-2.5151345721881695, 43.34575561238589], [-2.52111982080942, 43.34735167868489], [-2.52111982080942, 43.407056101976934], [-2.4489239996259413, 43.407056101976934], [-2.3973696362432384, 43.39674522930039], [-2.3973696362432384, 43.322202625196894]]]}}, {"type": "Feature", "properties": {"name": "north_coast_cell109", "km2": 77.1}, "geometry": {"type": "Polygon", "coordinates": [[[-2.273619451677057, 43.31722498447783], [-2.372481432647918, 43.31722498447783], [-2.397369636243239, 43.322202625196894], [-2.397369636243239, 43.39674522930039], [-2.3410926992159853, 43.385489841894945], [-2.273619451677057, 43.38099162539235], [-2.273619451677057, 43.31722498447783]]]}}, {"type": "Feature", "properties": {"name": "north_coast_cell110", "km2": 69.0}, "geometry": {"type": "Polygon", "coordinates": [[[-2.149869267110875, 43.31722498447783], [-2.2736194516770567, 43.31722498447783], [-2.2736194516770567, 43.38099162539235], [-2.202249448498501, 43.37623362518045], [-2.149869267110875, 43.38321764936546], [-2.149869267110875, 43.31722498447783]]]}}, {"type": "Feature", "properties": {"name": "north_coast_cell111", "km2": 79.8}, "geometry": {"type": "Polygon", "coordinates": [[[-2.0261190825446938, 43.32665057068045], [-2.041057607337886, 43.32465876737469], [-2.0968109790643648, 43.31722498447783], [-2.1498692671108754, 43.31722498447783], [-2.1498692671108754, 43.38321764936546], [-2.05894239266211, 43.3953412326253], [-2.0261190825446938, 43.39971767397429], [-2.0261190825446938, 43.32665057068045]]]}}, {"type": "Feature", "properties": {"name": "north_coast_cell112", "km2": 78.6}, "geometry": {"type": "Polygon", "coordinates": [[[-1.9023688979785127, 43.407056101976934], [-1.9023688979785127, 43.34315059528928], [-2.026119082544694, 43.32665057068045], [-2.026119082544694, 43.39971767397429], [-1.9710808725248492, 43.407056101976934], [-1.9023688979785127, 43.407056101976934]]]}}, {"type": "Feature", "properties": {"name": "north_coast_cell113", "km2": 69.5}, "geometry": {"type": "Polygon", "coordinates": [[[-1.902368897978512, 43.407056101976934], [-1.7799999999999998, 43.407056101976934], [-1.7799999999999998, 43.34406755300036], [-1.8954917151454431, 43.34406755300036], [-1.902368897978512, 43.34315059528928], [-1.902368897978512, 43.407056101976934]]]}}, {"type": "Feature", "properties": {"name": "north_coast_cell114", "km2": 7.9}, "geometry": {"type": "Polygon", "coordinates": [[[-9.07987960281704, 43.22739386697873], [-9.137239112539579, 43.22739386697873], [-9.07987960281704, 43.25798560549742], [-9.07987960281704, 43.22739386697873]]]}}, {"type": "Feature", "properties": {"name": "north_coast_cell115", "km2": 71.1}, "geometry": {"type": "Polygon", "coordinates": [[[-8.95612941825086, 43.31722498447783], [-8.95612941825086, 43.236094431649626], [-8.9715970887769, 43.22739386697873], [-9.079879602817043, 43.22739386697873], [-9.079879602817043, 43.25798560549742], [-9.059818637180571, 43.2686847871702], [-8.973524953078115, 43.31722498447783], [-8.95612941825086, 43.31722498447783]]]}}, {"type": "Feature", "properties": {"name": "north_coast_cell116", "km2": 53.0}, "geometry": {"type": "Polygon", "coordinates": [[[-8.95612941825086, 43.31722498447783], [-8.832379233684678, 43.31722498447783], [-8.832379233684678, 43.29262745219911], [-8.854190160218273, 43.29343526429295], [-8.95612941825086, 43.236094431649626], [-8.95612941825086, 43.31722498447783]]]}}, {"type": "Feature", "properties": {"name": "north_coast_cell117", "km2": 30.0}, "geometry": {"type": "Polygon", "coordinates": [[[-8.832379233684678, 43.31722498447783], [-8.708629049118496, 43.31722498447783], [-8.708629049118496, 43.28804411202999], [-8.832379233684678, 43.29262745219911], [-8.832379233684678, 43.31722498447783]]]}}, {"type": "Feature", "properties": {"name": "north_coast_cell118", "km2": 35.1}, "geometry": {"type": "Polygon", "coordinates": [[[-8.708629049118498, 43.31722498447783], [-8.584878864552316, 43.31722498447783], [-8.584878864552316, 43.2855006699498], [-8.590386589392404, 43.28366476166977], [-8.708629049118498, 43.28804411202999], [-8.708629049118498, 43.31722498447783]]]}}, {"type": "Feature", "properties": {"name": "north_coast_cell119", "km2": 13.6}, "geometry": {"type": "Polygon", "coordinates": [[[-8.584878864552316, 43.31722498447783], [-8.489705920968218, 43.31722498447783], [-8.584878864552316, 43.2855006699498], [-8.584878864552316, 43.31722498447783]]]}}, {"type": "Feature", "properties": {"name": "north_coast_cell121", "km2": 11.9}, "geometry": {"type": "Polygon", "coordinates": [[[-2.2736194516770567, 43.31722498447783], [-2.149869267110875, 43.31722498447783], [-2.149869267110875, 43.31015054607163], [-2.1977505515014992, 43.30376637481955], [-2.2736194516770567, 43.30882430149792], [-2.2736194516770567, 43.31722498447783]]]}}, {"type": "Feature", "properties": {"name": "north_coast_cell123", "km2": 12.2}, "geometry": {"type": "Polygon", "coordinates": [[[-9.203629787383223, 43.137562749479635], [-9.241063326352323, 43.137562749479635], [-9.222603574495736, 43.181866153935445], [-9.203629787383223, 43.19198550706212], [-9.203629787383223, 43.137562749479635]]]}}, {"type": "Feature", "properties": {"name": "north_coast_cell124", "km2": 81.6}, "geometry": {"type": "Polygon", "coordinates": [[[-9.07987960281704, 43.22739386697874], [-9.07987960281704, 43.16880948483107], [-9.137396425504264, 43.13813384606455], [-9.137634382414644, 43.137562749479635], [-9.203629787383223, 43.137562749479635], [-9.203629787383223, 43.19198550706212], [-9.137239112539566, 43.22739386697874], [-9.07987960281704, 43.22739386697874]]]}}, {"type": "Feature", "properties": {"name": "north_coast_cell125", "km2": 28.9}, "geometry": {"type": "Polygon", "coordinates": [[[-9.079879602817043, 43.22739386697874], [-8.971597088776887, 43.22739386697874], [-9.000181362819427, 43.21131521282981], [-9.079879602817043, 43.16880948483107], [-9.079879602817043, 43.22739386697874]]]}}, {"type": "Feature", "properties": {"name": "north_coast_cell126", "km2": 45.6}, "geometry": {"type": "Polygon", "coordinates": [[[-9.203629787383223, 43.137562749479635], [-9.203629787383223, 43.04773163198053], [-9.278492958643616, 43.04773163198053], [-9.241063326352323, 43.137562749479635], [-9.203629787383223, 43.137562749479635]]]}}, {"type": "Feature", "properties": {"name": "north_coast_cell127", "km2": 38.4}, "geometry": {"type": "Polygon", "coordinates": [[[-9.203629787383223, 43.04773163198053], [-9.203629787383223, 43.137562749479635], [-9.137634382414644, 43.137562749479635], [-9.175064014705939, 43.04773163198053], [-9.203629787383223, 43.04773163198053]]]}}, {"type": "Feature", "properties": {"name": "north_coast_cell128", "km2": 75.3}, "geometry": {"type": "Polygon", "coordinates": [[[-9.203629787383223, 43.04773163198053], [-9.203629787383223, 42.97917377755505], [-9.212493646997231, 42.95790051448143], [-9.315922590934907, 42.95790051448143], [-9.278492958643616, 43.04773163198053], [-9.203629787383223, 43.04773163198053]]]}}, {"type": "Feature", "properties": {"name": "north_coast_cell129", "km2": 8.9}, "geometry": {"type": "Polygon", "coordinates": [[[-9.203629787383223, 43.04773163198053], [-9.175064014705939, 43.04773163198053], [-9.203629787383223, 42.97917377755505], [-9.203629787383223, 43.04773163198053]]]}}, {"type": "Feature", "properties": {"name": "north_coast_cell130", "km2": 35.6}, "geometry": {"type": "Polygon", "coordinates": [[[-9.212493646997231, 42.95790051448143], [-9.232620028050592, 42.90959719995337], [-9.327379971949405, 42.930402800046636], [-9.315922590934907, 42.95790051448143], [-9.212493646997231, 42.95790051448143]]]}}]}