{
  "type": "FeatureCollection",
  "features": [
    {
      "type": "Feature",
      "properties": {
        "name": "north_coast",
        "area_km2": 5265.830602581164
      },
      "geometry": {
        "type": "Polygon",
        "coordinates": [
          [
            [
              -9.222603574495736,
              43.181866153935445
            ],
            [
              -9.059818637180571,
              43.2686847871702
            ],
            [
              -8.885809839781725,
              43.36656473570705
            ],
            [
              -8.609613410607594,
              43.35633523833024
            ],
            [
              -8.44065628303112,
              43.41265428085572
            ],
            [
              -8.32455009649506,
              43.45135634303441
            ],
            [
              -8.228700071536892,
              43.499281355513496
            ],
            [
              -8.082668293599596,
              43.577164970413385
            ],
            [
              -7.876172524656965,
              43.73203679712036
            ],
            [
              -7.704453650392003,
              43.76638057197334
            ],
            [
              -7.542579648151329,
              43.75558897182396
            ],
            [
              -7.394689535963227,
              43.73283664687196
            ],
            [
              -7.225199815095928,
              43.60322686032637
            ],
            [
              -7.097750551501499,
              43.58623362518045
            ],
            [
              -6.9539647053495885,
              43.595819348257244
            ],
            [
              -6.75,
              43.606017583524725
            ],
            [
              -6.54829726949839,
              43.59593244699965
            ],
            [
              -6.351702730501608,
              43.59593244699965
            ],
            [
              -6.15,
              43.606017583524725
            ],
            [
              -5.95,
              43.59601758352473
            ],
            [
              -5.74943361352149,
              43.606045902848656
            ],
            [
              -5.595847647581465,
              43.59580683845265
            ],
            [
              -5.412213850578455,
              43.585604960841366
            ],
            [
              -5.238307046708215,
              43.55491552486427
            ],
            [
              -5.070390807070837,
              43.5252832472812
            ],
            [
              -4.888952384417128,
              43.50512342254189
            ],
            [
              -4.708743431667057,
              43.46507698859743
            ],
            [
              -4.544031960016407,
              43.44569916840324
            ],
            [
              -4.3779976961551474,
              43.43593244699964
            ],
            [
              -4.203766395463193,
              43.43593244699964
            ],
            [
              -4.027704371581703,
              43.45549489409759
            ],
            [
              -3.8517233052296884,
              43.47619854896252
            ],
            [
              -3.7,
              43.466083661947216
            ],
            [
              -3.5522682242136,
              43.475932446999636
            ],
            [
              -3.4179976961551466,
              43.475932446999636
            ],
            [
              -3.243513309085152,
              43.46566865952494
            ],
            [
              -3.0977505515014983,
              43.44623362518044
            ],
            [
              -2.952268224213606,
              43.45593244699964
            ],
            [
              -2.6411956505075502,
              43.45593244699964
            ],
            [
              -2.48486542781183,
              43.41424438761411
            ],
            [
              -2.3410926992159853,
              43.385489841894945
            ],
            [
              -2.202249448498501,
              43.37623362518045
            ],
            [
              -2.05894239266211,
              43.3953412326253
            ],
            [
              -1.9045082848545567,
              43.41593244699964
            ],
            [
              -1.7799999999999998,
              43.41593244699964
            ],
            [
              -1.7799999999999998,
              43.34406755300036
            ],
            [
              -1.8954917151454431,
              43.34406755300036
            ],
            [
              -2.041057607337886,
              43.32465876737469
            ],
            [
              -2.1977505515014992,
              43.30376637481955
            ],
            [
              -2.358907300784015,
              43.31451015810505
            ],
            [
              -2.5151345721881695,
              43.34575561238589
            ],
            [
              -2.65880434949245,
              43.38406755300036
            ],
            [
              -2.9477317757863943,
              43.38406755300036
            ],
            [
              -3.102249448498502,
              43.373766374819546
            ],
            [
              -3.2564866909148487,
              43.39433134047506
            ],
            [
              -3.4220023038448524,
              43.40406755300035
            ],
            [
              -3.5477317757864,
              43.40406755300035
            ],
            [
              -3.7,
              43.39391633805278
            ],
            [
              -3.8482766947703113,
              43.403801451037474
            ],
            [
              -4.012295628418297,
              43.38450510590241
            ],
            [
              -4.196233604536808,
              43.36406755300035
            ],
            [
              -4.382002303844853,
              43.36406755300035
            ],
            [
              -4.5559680399835925,
              43.37430083159675
            ],
            [
              -4.731256568332943,
              43.39492301140256
            ],
            [
              -4.9110476155828735,
              43.434876577458105
            ],
            [
              -5.089609192929164,
              43.4547167527188
            ],
            [
              -5.261692953291788,
              43.48508447513574
            ],
            [
              -5.427786149421546,
              43.514395039158636
            ],
            [
              -5.604152352418535,
              43.52419316154736
            ],
            [
              -5.75056638647851,
              43.53395409715135
            ],
            [
              -5.95,
              43.523982416475285
            ],
            [
              -6.15,
              43.53398241647528
            ],
            [
              -6.34829726949839,
              43.524067553000364
            ],
            [
              -6.551702730501608,
              43.524067553000364
            ],
            [
              -6.75,
              43.53398241647528
            ],
            [
              -6.946035294650412,
              43.52418065174277
            ],
            [
              -7.102249448498501,
              43.513766374819554
            ],
            [
              -7.274800184904072,
              43.53677313967363
            ],
            [
              -7.445310464036772,
              43.667163353128046
            ],
            [
              -7.557420351848671,
              43.68441102817603
            ],
            [
              -7.695546349607996,
              43.69361942802665
            ],
            [
              -7.823827475343034,
              43.66796320287965
            ],
            [
              -8.017331706400407,
              43.52283502958661
            ],
            [
              -8.171299928463107,
              43.4407186444865
            ],
            [
              -8.275449903504942,
              43.38864365696559
            ],
            [
              -8.39934371696888,
              43.34734571914428
            ],
            [
              -8.590386589392404,
              43.28366476166977
            ],
            [
              -8.854190160218273,
              43.29343526429295
            ],
            [
              -9.000181362819427,
              43.21131521282981
            ],
            [
              -9.137396425504264,
              43.13813384606455
            ],
            [
              -9.232620028050592,
              42.90959719995337
            ],
            [
              -9.327379971949405,
              42.930402800046636
            ],
            [
              -9.222603574495736,
              43.181866153935445
            ]
          ]
        ]
      }
    }
  ]
}